{
  "type": "FeatureCollection",
  "features": [
    {
      "type": "Feature",
      "properties": {
        "norad_id": 66657,
        "name": "SPIRONE",
        "group": "last-30-days",
        "lat": 54.542635292912486,
        "lon": -106.73150987379148,
        "alt_km": 586.9865424429327,
        "timestamp": "2025-12-02T21:34:00.043932+00:00",
        "meta_object_name": "SPIRONE",
        "meta_object_id": "2025-274H",
        "meta_epoch": "2025-12-02T06:50:13.873056",
        "meta_mean_motion": 14.92346992,
        "meta_eccentricity": 0.0011178,
        "meta_inclination": 97.7375,
        "meta_ra_of_asc_node": 263.6718,
        "meta_arg_of_pericenter": 316.0117,
        "meta_mean_anomaly": 44.0211,
        "meta_ephemeris_type": 0,
        "meta_classification_type": "U",
        "meta_norad_cat_id": 66657,
        "meta_element_set_no": 999,
        "meta_rev_at_epoch": 84,
        "meta_bstar": 0.00047593,
        "meta_mean_motion_dot": 4.817e-05,
        "meta_mean_motion_ddot": 0,
        "tle_line1": "1 66657U 25274H   25336.28488279  .00004817  00000+0  47593-3 0  9997",
        "tle_line2": "2 66657  97.7375 263.6718 0011178 316.0117  44.0211 14.92346992   843"
      },
      "geometry": {
        "type": "Point",
        "coordinates": [
          -106.73150987379148,
          54.542635292912486
        ]
      }
    },
    {
      "type": "Feature",
      "properties": {
        "norad_id": 66658,
        "name": "2025-274J",
        "group": "last-30-days",
        "lat": 58.372861763045265,
        "lon": -108.47833937604243,
        "alt_km": 586.2796899079112,
        "timestamp": "2025-12-02T21:34:00.043942+00:00",
        "meta_object_name": "2025-274J",
        "meta_object_id": "2025-274J",
        "meta_epoch": "2025-12-02T08:25:49.156032",
        "meta_mean_motion": 14.92522572,
        "meta_eccentricity": 0.0011816,
        "meta_inclination": 97.7376,
        "meta_ra_of_asc_node": 263.7384,
        "meta_arg_of_pericenter": 318.1646,
        "meta_mean_anomaly": 41.8669,
        "meta_ephemeris_type": 0,
        "meta_classification_type": "U",
        "meta_norad_cat_id": 66658,
        "meta_element_set_no": 999,
        "meta_rev_at_epoch": 85,
        "meta_bstar": 0.0004508,
        "meta_mean_motion_dot": 4.58e-05,
        "meta_mean_motion_ddot": 0,
        "tle_line1": "1 66658U 25274J   25336.35126338  .00004580  00000+0  45080-3 0  9997",
        "tle_line2": "2 66658  97.7376 263.7384 0011816 318.1646  41.8669 14.92522572   857"
      },
      "geometry": {
        "type": "Point",
        "coordinates": [
          -108.47833937604243,
          58.372861763045265
        ]
      }
    },
    {
      "type": "Feature",
      "properties": {
        "norad_id": 66659,
        "name": "JACK K",
        "group": "last-30-days",
        "lat": 62.38157224336166,
        "lon": -110.78486017389658,
        "alt_km": 585.8505355095094,
        "timestamp": "2025-12-02T21:34:00.043954+00:00",
        "meta_object_name": "JACK K",
        "meta_object_id": "2025-274K",
        "meta_epoch": "2025-12-02T11:37:51.574944",
        "meta_mean_motion": 14.92709997,
        "meta_eccentricity": 0.0012545,
        "meta_inclination": 97.7378,
        "meta_ra_of_asc_node": 263.8713,
        "meta_arg_of_pericenter": 318.59,
        "meta_mean_anomaly": 41.4367,
        "meta_ephemeris_type": 0,
        "meta_classification_type": "U",
        "meta_norad_cat_id": 66659,
        "meta_element_set_no": 999,
        "meta_rev_at_epoch": 87,
        "meta_bstar": 0.00045751,
        "meta_mean_motion_dot": 4.672e-05,
        "meta_mean_motion_ddot": 0,
        "tle_line1": "1 66659U 25274K   25336.48462471  .00004672  00000+0  45751-3 0  9990",
        "tle_line2": "2 66659  97.7378 263.8713 0012545 318.5900  41.4367 14.92709997   875"
      },
      "geometry": {
        "type": "Point",
        "coordinates": [
          -110.78486017389658,
          62.38157224336166
        ]
      }
    },
    {
      "type": "Feature",
      "properties": {
        "norad_id": 66660,
        "name": "K-HERO",
        "group": "last-30-days",
        "lat": 65.57239551775216,
        "lon": -113.14009949173634,
        "alt_km": 585.6016660893156,
        "timestamp": "2025-12-02T21:34:00.043965+00:00",
        "meta_object_name": "K-HERO",
        "meta_object_id": "2025-274L",
        "meta_epoch": "2025-12-02T11:37:01.375680",
        "meta_mean_motion": 14.92861642,
        "meta_eccentricity": 0.0013166,
        "meta_inclination": 97.7382,
        "meta_ra_of_asc_node": 263.8724,
        "meta_arg_of_pericenter": 319.1541,
        "meta_mean_anomaly": 40.8691,
        "meta_ephemeris_type": 0,
        "meta_classification_type": "U",
        "meta_norad_cat_id": 66660,
        "meta_element_set_no": 999,
        "meta_rev_at_epoch": 87,
        "meta_bstar": 0.0004926,
        "meta_mean_motion_dot": 5.055e-05,
        "meta_mean_motion_ddot": 0,
        "tle_line1": "1 66660U 25274L   25336.48404370  .00005055  00000+0  49260-3 0  9991",
        "tle_line2": "2 66660  97.7382 263.8724 0013166 319.1541  40.8691 14.92861642   871"
      },
      "geometry": {
        "type": "Point",
        "coordinates": [
          -113.14009949173634,
          65.57239551775216
        ]
      }
    },
    {
      "type": "Feature",
      "properties": {
        "norad_id": 66661,
        "name": "SNUGLITE-III",
        "group": "last-30-days",
        "lat": 68.83154546455795,
        "lon": -116.27517987981686,
        "alt_km": 585.4471986221624,
        "timestamp": "2025-12-02T21:34:00.043976+00:00",
        "meta_object_name": "SNUGLITE-III",
        "meta_object_id": "2025-274M",
        "meta_epoch": "2025-12-02T11:36:09.160704",
        "meta_mean_motion": 14.93012228,
        "meta_eccentricity": 0.0013867,
        "meta_inclination": 97.7379,
        "meta_ra_of_asc_node": 263.8729,
        "meta_arg_of_pericenter": 319.8033,
        "meta_mean_anomaly": 40.216,
        "meta_ephemeris_type": 0,
        "meta_classification_type": "U",
        "meta_norad_cat_id": 66661,
        "meta_element_set_no": 999,
        "meta_rev_at_epoch": 87,
        "meta_bstar": 0.00038987,
        "meta_mean_motion_dot": 4.005e-05,
        "meta_mean_motion_ddot": 0,
        "tle_line1": "1 66661U 25274M   25336.48343936  .00004005  00000+0  38987-3 0  9990",
        "tle_line2": "2 66661  97.7379 263.8729 0013867 319.8033  40.2160 14.93012228   878"
      },
      "geometry": {
        "type": "Point",
        "coordinates": [
          -116.27517987981686,
          68.83154546455795
        ]
      }
    },
    {
      "type": "Feature",
      "properties": {
        "norad_id": 66662,
        "name": "2025-274N",
        "group": "last-30-days",
        "lat": 70.24969123456941,
        "lon": -117.97160981554413,
        "alt_km": 585.5836596329655,
        "timestamp": "2025-12-02T21:34:00.043987+00:00",
        "meta_object_name": "2025-274N",
        "meta_object_id": "2025-274N",
        "meta_epoch": "2025-12-02T08:22:45.352992",
        "meta_mean_motion": 14.93074074,
        "meta_eccentricity": 0.0014272,
        "meta_inclination": 97.7379,
        "meta_ra_of_asc_node": 263.7415,
        "meta_arg_of_pericenter": 319.6599,
        "meta_mean_anomaly": 40.3561,
        "meta_ephemeris_type": 0,
        "meta_classification_type": "U",
        "meta_norad_cat_id": 66662,
        "meta_element_set_no": 999,
        "meta_rev_at_epoch": 85,
        "meta_bstar": 0.00027623,
        "meta_mean_motion_dot": 2.825e-05,
        "meta_mean_motion_ddot": 0,
        "tle_line1": "1 66662U 25274N   25336.34913603  .00002825  00000+0  27623-3 0  9993",
        "tle_line2": "2 66662  97.7379 263.7415 0014272 319.6599  40.3561 14.93074074   857"
      },
      "geometry": {
        "type": "Point",
        "coordinates": [
          -117.97160981554413,
          70.24969123456941
        ]
      }
    },
    {
      "type": "Feature",
      "properties": {
        "norad_id": 66663,
        "name": "KSLV-II R/B",
        "group": "last-30-days",
        "lat": 11.442159967133115,
        "lon": 85.91367641042687,
        "alt_km": 607.6503633282637,
        "timestamp": "2025-12-02T21:34:00.043996+00:00",
        "meta_object_name": "KSLV-II R/B",
        "meta_object_id": "2025-274P",
        "meta_epoch": "2025-12-02T09:35:20.901408",
        "meta_mean_motion": 14.972028,
        "meta_eccentricity": 0.0044135,
        "meta_inclination": 97.7406,
        "meta_ra_of_asc_node": 263.8419,
        "meta_arg_of_pericenter": 353.0151,
        "meta_mean_anomaly": 7.045,
        "meta_ephemeris_type": 0,
        "meta_classification_type": "U",
        "meta_norad_cat_id": 66663,
        "meta_element_set_no": 999,
        "meta_rev_at_epoch": 86,
        "meta_bstar": -0.00028812,
        "meta_mean_motion_dot": -3.459e-05,
        "meta_mean_motion_ddot": 0,
        "tle_line1": "1 66663U 25274P   25336.39954747 -.00003459  00000+0 -28812-3 0  9990",
        "tle_line2": "2 66663  97.7406 263.8419 0044135 353.0151   7.0450 14.97202800   863"
      },
      "geometry": {
        "type": "Point",
        "coordinates": [
          85.91367641042687,
          11.442159967133115
        ]
      }
    }
  ]
}